#aV2009  8  7  0  0   .00000000      96 DD+AD WGS84 FIT  NGA
## 1543 432000.00000000   900.00000000 55050  .0000000000000
+   31     1  2  3  4  6  7  8  9 10 11 12 13 14 15 16 17 18
+         19 20 21 22 23 24 25 26 27 28 29 30 31 32  0  0  0
+          0  0  0  0  0  0  0  0  0  0  0  0  0  0  0  0  0
+          0  0  0  0  0  0  0  0  0  0  0  0  0  0  0  0  0
+          0  0  0  0  0  0  0  0  0  0  0  0  0  0  0  0  0
++         0  0  0  0  0  0  0  0  0  0  0  0  0  0  0  0  0
++         0  0  0  0  0  0  0  0  0  0  0  0  0  0  0  0  0
++         0  0  0  0  0  0  0  0  0  0  0  0  0  0  0  0  0
++         0  0  0  0  0  0  0  0  0  0  0  0  0  0  0  0  0
++         0  0  0  0  0  0  0  0  0  0  0  0  0  0  0  0  0
%c cc cc ccc ccc cccc cccc cccc cccc ccccc ccccc ccccc ccccc
%c cc cc ccc ccc cccc cccc cccc cccc ccccc ccccc ccccc ccccc
%f  0.0000000  0.000000000  0.00000000000  0.000000000000000
%f  0.0000000  0.000000000  0.00000000000  0.000000000000000
%i    0    0    0    0      0      0      0      0         0
%i    0    0    0    0      0      0      0      0         0
/*      NGA, ST. LOUIS,MO.                                  
/*   EPHEMERIS COMPUTED FROM  3 DAYS OF DATA                
/* CCCCCCCCCCCCCCCCCCCCCCCCCCCCCCCCCCCCCCCCCCCCCCCCCCCCCCCCC
/* CCCCCCCCCCCCCCCCCCCCCCCCCCCCCCCCCCCCCCCCCCCCCCCCCCCCCCCCC
*  2009  8  7 11 15   .00000000                                                 
P  1  17690.030898 -17390.728367  -9444.894423    -60.430677                    
V  1  11637.919833  -3532.806007  28696.556779       .019375                    
P  2  13237.405318  14304.506323 -18302.590499    163.947484                    
V  2  -1753.744936  22985.488865  16346.949863       .021562                    
P  3 -24838.891099  -9629.860207   2141.617549    430.498862                    
V  3  -1312.902534  -4538.686640 -30602.378305       .051417                    
P  4   7575.624161  22736.970722 -11181.635651   -208.911371                    
V  4  -3586.052227  14079.649171  26885.729362      -.168338                    
P  6 -23156.964660 -13075.211282   -562.308629    212.966568                    
V  6   2537.973388  -2705.276485 -31094.732441       .092407                    
P  7  -7367.222895  23435.423425  -9940.545878     13.830499                    
V  7  -2128.350551 -12674.891076 -28503.694408      -.007227                    
P  8   -262.629994  26106.464315   2941.951585   -215.540898                    
V  8  -2647.197893   3629.564210 -32428.268419      -.017472                    
P  9  13722.709085  -8388.312611  20460.371769     70.688354                    
V  9   1193.086980  27473.421544  10205.959043       .020803                    
P 10  20802.829131   2461.738427 -16685.215748    -20.730158                    
V 10 -17680.802318  11000.812443 -20292.642829      -.008279                    
P 11 -13946.016393  10956.525726  19477.801865    -13.998983                    
V 11  -6714.606646 -24774.960777   9390.595585      -.017317                    
P 12  23809.361149 -11490.199730   1761.077695   -238.288919                    
V 12   -628.838034   3402.814480  31888.748370       .059614                    
P 13  -6281.263445  13243.686664 -22278.078702    302.767463                    
V 13 -23016.899782 -15731.393888  -2892.263033       .006297                    
P 14 -10283.126487 -19093.828387  15545.812350    -68.695342                    
V 14  16880.699508   9660.852098  23093.733090       .054793                    
P 15  23806.162445   5254.676564  10642.635412   -312.988974                    
V 15  10335.938678   8993.583412 -27557.138223      -.020202                    
P 16 -16608.739812  -6599.428835 -19675.866749     25.330957                    
V 16  21723.906085 -12400.831545 -13903.187252      -.037154                    
P 17   9810.214494  19203.281577  15706.729243     75.639059                    
V 17 -17660.251781  -8999.497289  21944.248537       .026393                    
P 18  11483.816688 -18403.862586  15303.681714      3.225290                    
V 18  18289.058857  -6447.272844 -22201.984677       .029984                    
P 19 -22867.516930  -5307.442887  12732.392317     16.109460                    
V 19 -11759.998476 -11039.612872 -25573.874435      -.015022                    
P 20 -22990.536471  13252.557614    154.641834     75.359296                    
V 20  -1457.956744  -3184.929481  31334.320443      -.009398                    
P 21   5787.026898 -24670.660494  -6509.865185     -1.741083                    
V 21   3738.957015   8958.608301 -30010.131817      -.022204                    
P 22   -520.710948 -16753.182274  20751.845846    193.827453                    
V 22  23704.361856 -10911.349678  -8360.170795      -.006831                    
P 23 -18211.761906   4114.410627 -19047.898733    389.664946                    
V 23 -19849.784790 -13478.013746  15808.029098      -.002540                    
P 24  13088.497386 -16063.731072 -16627.649298    210.470073                    
V 24    357.372099  21372.593130 -19958.512156       .030105                    
P 25  -9554.466663  18828.610490 -15890.795723    542.656600                    
V 25  -3194.766325 -20532.692096 -21755.338922       .162047                    
P 26   3629.376034 -14443.171705  21392.298997     64.646388                    
V 26  23812.004114  15588.803231   6803.124111      -.002094                    
P 27  15142.867601  -1955.218066  22420.425223     72.194563                    
V 27   1054.721625  26761.803905   1681.854250       .032502                    
P 28  -2171.462815  17036.076604  20612.039390    -26.145422                    
V 28 -22982.315233  10548.499344 -11690.867171      -.001066                    
P 29   8739.671730 -12416.682711 -21689.273080     46.523060                    
V 29  23317.787046  15111.562666    783.862163       .034027                    
P 30  18158.720276 -17722.704034  -8098.646719    166.878958                    
V 30   9854.484440  -2650.540166  29349.325850       .028821                    
P 31  -8165.700590 -21683.079514 -12653.850271    -64.636265                    
V 31   2470.776751 -16380.010635  26191.353162      -.003562                    
P 32 -24927.655295   5617.213291   7099.446206    219.131019                    
V 32   6723.780335  -5981.980363  30245.253738      -.065171                    
EOF
